ONEWEB-0141             
1 47287U 20100AF  25219.60363306  .00000527  00000+0  14291-2 0  9999
2 47287  87.8843  52.9872 0001578  96.6669 263.4639 13.12444146223543
ONEWEB-0142             
1 47288U 20100AG  25219.51631375  .00000325  00000+0  86874-3 0  9997
2 47288  87.8860  53.0151 0001379  93.8179 266.3108 13.12444432223528
ONEWEB-0143             
1 47289U 20100AH  25219.98332869  .00000460  00000+0  12433-2 0  9994
2 47289  87.8859  52.9195 0001776  87.5246 272.6086 13.12443433223568
ONEWEB-0144             
1 47290U 20100AJ  25219.57455883 -.00000204  00000+0 -60300-3 0  9998
2 47290  87.8849  52.9796 0001472  85.2510 274.8786 13.12443365223439
ONEWEB-0145             
1 47291U 20100AK  25220.00278470  .00000469  00000+0  12680-2 0  9992
2 47291  87.8859  52.9222 0001656  85.5667 274.5651 13.12444281223688
ONEWEB-0146             
1 47292U 20100AL  25219.54211958  .00000192  00000+0  49792-3 0  9996
2 47292  87.8856  53.0010 0002106  89.4089 270.7280 13.12442385223538
ONEWEB-0147             
1 47293U 20100AM  25219.58428893  .00000029  00000+0  46346-4 0  9991
2 47293  87.8855  52.9712 0001735  77.9600 282.1723 13.12444694223436
ONEWEB-0115             
1 48042U 21025A   25219.47638649 -.00000254  00000+0 -73058-3 0  9992
2 48042  87.8976  22.5320 0001820  93.2938 266.8399 13.13469370212414
ONEWEB-0152             
1 48043U 21025B   25219.48992019 -.00000176  00000+0 -51724-3 0  9997
2 48043  87.8973  22.5436 0001905  91.9832 268.1515 13.13470229212377
ONEWEB-0153             
1 48044U 21025C   25219.54409512  .00000019  00000+0  17624-4 0  9992
2 48044  87.8977  22.5314 0001752  94.0408 266.0921 13.13470254212376
ONEWEB-0154             
1 48045U 21025D   25219.46452927 -.00000004  00000+0 -47108-4 0  9998
2 48045  87.8974  22.5456 0001781  90.8538 269.2795 13.13469529212323
ONEWEB-0116             
1 48046U 21025E   25219.50346628  .00000110  00000+0  26670-3 0  9990
2 48046  87.8975  22.5190 0001939  92.2922 267.8430 13.13470485212477
ONEWEB-0150             
1 48047U 21025F   25219.47976156 -.00000235  00000+0 -67751-3 0  9997
2 48047  87.8975  22.5189 0001757  99.3675 260.7653 13.13470491212361
ONEWEB-0107             
1 48048U 21025G   25219.48145406 -.00000318  00000+0 -90619-3 0  9996
2 48048  87.8974  22.5168 0001450  91.7404 268.3891 13.13470346212349
ONEWEB-0101             
1 48049U 21025H   25219.52038464  .00000375  00000+0  99180-3 0  9990
2 48049  87.8976  22.5489 0001689  88.7581 271.3741 13.13468748212323
ONEWEB-0113             
1 48050U 21025J   25219.58603401  .00000330  00000+0  86108-3 0  9994
2 48050  87.8973  22.4828 0001910  94.6511 265.4836 13.13977061212427
ONEWEB-0112             
1 48051U 21025K   25219.48653587 -.00000260  00000+0 -74738-3 0  9994
2 48051  87.8976  22.5125 0001768  95.9117 264.2214 13.13470293212410
