[{"OBJECT_NAME":"ONEWEB-0141","OBJECT_ID":"2020-100AF","EPOCH":"2025-08-07T14:29:13.896384","MEAN_MOTION":13.12444146,"ECCENTRICITY":0.00015785,"INCLINATION":87.8843,"RA_OF_ASC_NODE":52.9872,"ARG_OF_PERICENTER":96.6669,"MEAN_ANOMALY":263.4639,"EPHEMERIS_TYPE":0,"CLASSIFICATION_TYPE":"U","NORAD_CAT_ID":47287,"ELEMENT_SET_NO":999,"REV_AT_EPOCH":22354,"BSTAR":0.0014291004,"MEAN_MOTION_DOT":5.27e-6,"MEAN_MOTION_DDOT":0},{"OBJECT_NAME":"ONEWEB-0142","OBJECT_ID":"2020-100AG","EPOCH":"2025-08-07T12:23:29.508000","MEAN_MOTION":13.12444432,"ECCENTRICITY":0.00013796,"INCLINATION":87.886,"RA_OF_ASC_NODE":53.0151,"ARG_OF_PERICENTER":93.8179,"MEAN_ANOMALY":266.3108,"EPHEMERIS_TYPE":0,"CLASSIFICATION_TYPE":"U","NORAD_CAT_ID":47288,"ELEMENT_SET_NO":999,"REV_AT_EPOCH":22352,"BSTAR":0.0008687361,"MEAN_MOTION_DOT":3.25e-6,"MEAN_MOTION_DDOT":0},{"OBJECT_NAME":"ONEWEB-0143","OBJECT_ID":"2020-100AH","EPOCH":"2025-08-07T23:35:59.598816","MEAN_MOTION":13.12443433,"ECCENTRICITY":0.0001776,"INCLINATION":87.8859,"RA_OF_ASC_NODE":52.9195,"ARG_OF_PERICENTER":87.5246,"MEAN_ANOMALY":272.6086,"EPHEMERIS_TYPE":0,"CLASSIFICATION_TYPE":"U","NORAD_CAT_ID":47289,"ELEMENT_SET_NO":999,"REV_AT_EPOCH":22356,"BSTAR":0.0012433,"MEAN_MOTION_DOT":4.6e-6,"MEAN_MOTION_DDOT":0},{"OBJECT_NAME":"ONEWEB-0144","OBJECT_ID":"2020-100AJ","EPOCH":"2025-08-07T13:47:21.882912","MEAN_MOTION":13.12443365,"ECCENTRICITY":0.00014722,"INCLINATION":87.8849,"RA_OF_ASC_NODE":52.9796,"ARG_OF_PERICENTER":85.251,"MEAN_ANOMALY":274.8786,"EPHEMERIS_TYPE":0,"CLASSIFICATION_TYPE":"U","NORAD_CAT_ID":47290,"ELEMENT_SET_NO":999,"REV_AT_EPOCH":22343,"BSTAR":-0.00060299703,"MEAN_MOTION_DOT":-2.04e-6,"MEAN_MOTION_DDOT":0},{"OBJECT_NAME":"ONEWEB-0145","OBJECT_ID":"2020-100AK","EPOCH":"2025-08-08T00:04:00.598080","MEAN_MOTION":13.12444281,"ECCENTRICITY":0.0001656,"INCLINATION":87.8859,"RA_OF_ASC_NODE":52.9222,"ARG_OF_PERICENTER":85.5667,"MEAN_ANOMALY":274.5651,"EPHEMERIS_TYPE":0,"CLASSIFICATION_TYPE":"U","NORAD_CAT_ID":47291,"ELEMENT_SET_NO":999,"REV_AT_EPOCH":22368,"BSTAR":0.001268,"MEAN_MOTION_DOT":4.69e-6,"MEAN_MOTION_DDOT":0},{"OBJECT_NAME":"ONEWEB-0146","OBJECT_ID":"2020-100AL","EPOCH":"2025-08-07T13:00:39.131712","MEAN_MOTION":13.12442385,"ECCENTRICITY":0.00021061,"INCLINATION":87.8856,"RA_OF_ASC_NODE":53.001,"ARG_OF_PERICENTER":89.4089,"MEAN_ANOMALY":270.728,"EPHEMERIS_TYPE":0,"CLASSIFICATION_TYPE":"U","NORAD_CAT_ID":47292,"ELEMENT_SET_NO":999,"REV_AT_EPOCH":22353,"BSTAR":0.00049792297,"MEAN_MOTION_DOT":1.92e-6,"MEAN_MOTION_DDOT":0},{"OBJECT_NAME":"ONEWEB-0147","OBJECT_ID":"2020-100AM","EPOCH":"2025-08-07T14:01:22.563552","MEAN_MOTION":13.12444694,"ECCENTRICITY":0.00017354,"INCLINATION":87.8855,"RA_OF_ASC_NODE":52.9712,"ARG_OF_PERICENTER":77.96,"MEAN_ANOMALY":282.1723,"EPHEMERIS_TYPE":0,"CLASSIFICATION_TYPE":"U","NORAD_CAT_ID":47293,"ELEMENT_SET_NO":999,"REV_AT_EPOCH":22343,"BSTAR":4.6345626e-5,"MEAN_MOTION_DOT":2.9e-7,"MEAN_MOTION_DDOT":0},{"OBJECT_NAME":"ONEWEB-0115","OBJECT_ID":"2021-025A","EPOCH":"2025-08-07T11:25:59.792736","MEAN_MOTION":13.1346937,"ECCENTRICITY":0.00018208,"INCLINATION":87.8976,"RA_OF_ASC_NODE":22.532,"ARG_OF_PERICENTER":93.2938,"MEAN_ANOMALY":266.8399,"EPHEMERIS_TYPE":0,"CLASSIFICATION_TYPE":"U","NORAD_CAT_ID":48042,"ELEMENT_SET_NO":999,"REV_AT_EPOCH":21241,"BSTAR":-0.00073058466,"MEAN_MOTION_DOT":-2.54e-6,"MEAN_MOTION_DDOT":0},{"OBJECT_NAME":"ONEWEB-0152","OBJECT_ID":"2021-025B","EPOCH":"2025-08-07T11:45:29.104416","MEAN_MOTION":13.13470229,"ECCENTRICITY":0.00019052,"INCLINATION":87.8973,"RA_OF_ASC_NODE":22.5436,"ARG_OF_PERICENTER":91.9832,"MEAN_ANOMALY":268.1515,"EPHEMERIS_TYPE":0,"CLASSIFICATION_TYPE":"U","NORAD_CAT_ID":48043,"ELEMENT_SET_NO":999,"REV_AT_EPOCH":21237,"BSTAR":-0.00051724309,"MEAN_MOTION_DOT":-1.76e-6,"MEAN_MOTION_DDOT":0},{"OBJECT_NAME":"ONEWEB-0153","OBJECT_ID":"2021-025C","EPOCH":"2025-08-07T13:03:29.818368","MEAN_MOTION":13.13470254,"ECCENTRICITY":0.00017527,"INCLINATION":87.8977,"RA_OF_ASC_NODE":22.5314,"ARG_OF_PERICENTER":94.0408,"MEAN_ANOMALY":266.0921,"EPHEMERIS_TYPE":0,"CLASSIFICATION_TYPE":"U","NORAD_CAT_ID":48044,"ELEMENT_SET_NO":999,"REV_AT_EPOCH":21237,"BSTAR":1.7624099e-5,"MEAN_MOTION_DOT":1.9e-7,"MEAN_MOTION_DDOT":0},{"OBJECT_NAME":"ONEWEB-0154","OBJECT_ID":"2021-025D","EPOCH":"2025-08-07T11:08:55.328928","MEAN_MOTION":13.13469529,"ECCENTRICITY":0.0001781,"INCLINATION":87.8974,"RA_OF_ASC_NODE":22.5456,"ARG_OF_PERICENTER":90.8538,"MEAN_ANOMALY":269.2795,"EPHEMERIS_TYPE":0,"CLASSIFICATION_TYPE":"U","NORAD_CAT_ID":48045,"ELEMENT_SET_NO":999,"REV_AT_EPOCH":21232,"BSTAR":-4.7108128e-5,"MEAN_MOTION_DOT":-4.0e-8,"MEAN_MOTION_DDOT":0},{"OBJECT_NAME":"ONEWEB-0116","OBJECT_ID":"2021-025E","EPOCH":"2025-08-07T12:04:59.486592","MEAN_MOTION":13.13470485,"ECCENTRICITY":0.00019399,"INCLINATION":87.8975,"RA_OF_ASC_NODE":22.519,"ARG_OF_PERICENTER":92.2922,"MEAN_ANOMALY":267.843,"EPHEMERIS_TYPE":0,"CLASSIFICATION_TYPE":"U","NORAD_CAT_ID":48046,"ELEMENT_SET_NO":999,"REV_AT_EPOCH":21247,"BSTAR":0.00026670394,"MEAN_MOTION_DOT":1.1e-6,"MEAN_MOTION_DDOT":0},{"OBJECT_NAME":"ONEWEB-0150","OBJECT_ID":"2021-025F","EPOCH":"2025-08-07T11:30:51.398784","MEAN_MOTION":13.13470491,"ECCENTRICITY":0.00017576,"INCLINATION":87.8975,"RA_OF_ASC_NODE":22.5189,"ARG_OF_PERICENTER":99.3675,"MEAN_ANOMALY":260.7653,"EPHEMERIS_TYPE":0,"CLASSIFICATION_TYPE":"U","NORAD_CAT_ID":48047,"ELEMENT_SET_NO":999,"REV_AT_EPOCH":21236,"BSTAR":-0.00067750657,"MEAN_MOTION_DOT":-2.35e-6,"MEAN_MOTION_DDOT":0},{"OBJECT_NAME":"ONEWEB-0107","OBJECT_ID":"2021-025G","EPOCH":"2025-08-07T11:33:17.630784","MEAN_MOTION":13.13470346,"ECCENTRICITY":0.00014503,"INCLINATION":87.8974,"RA_OF_ASC_NODE":22.5168,"ARG_OF_PERICENTER":91.7404,"MEAN_ANOMALY":268.3891,"EPHEMERIS_TYPE":0,"CLASSIFICATION_TYPE":"U","NORAD_CAT_ID":48048,"ELEMENT_SET_NO":999,"REV_AT_EPOCH":21234,"BSTAR":-0.00090619187,"MEAN_MOTION_DOT":-3.18e-6,"MEAN_MOTION_DDOT":0},{"OBJECT_NAME":"ONEWEB-0101","OBJECT_ID":"2021-025H","EPOCH":"2025-08-07T12:29:21.232896","MEAN_MOTION":13.13468748,"ECCENTRICITY":0.00016894,"INCLINATION":87.8976,"RA_OF_ASC_NODE":22.5489,"ARG_OF_PERICENTER":88.7581,"MEAN_ANOMALY":271.3741,"EPHEMERIS_TYPE":0,"CLASSIFICATION_TYPE":"U","NORAD_CAT_ID":48049,"ELEMENT_SET_NO":999,"REV_AT_EPOCH":21232,"BSTAR":0.00099180331,"MEAN_MOTION_DOT":3.75e-6,"MEAN_MOTION_DDOT":0},{"OBJECT_NAME":"ONEWEB-0113","OBJECT_ID":"2021-025J","EPOCH":"2025-08-07T14:03:53.338464","MEAN_MOTION":13.13977061,"ECCENTRICITY":0.00019106,"INCLINATION":87.8973,"RA_OF_ASC_NODE":22.4828,"ARG_OF_PERICENTER":94.6511,"MEAN_ANOMALY":265.4836,"EPHEMERIS_TYPE":0,"CLASSIFICATION_TYPE":"U","NORAD_CAT_ID":48050,"ELEMENT_SET_NO":999,"REV_AT_EPOCH":21242,"BSTAR":0.00086108132,"MEAN_MOTION_DOT":3.3e-6,"MEAN_MOTION_DDOT":0},{"OBJECT_NAME":"ONEWEB-0112","OBJECT_ID":"2021-025K","EPOCH":"2025-08-07T11:40:36.699168","MEAN_MOTION":13.13470293,"ECCENTRICITY":0.00017685,"INCLINATION":87.8976,"RA_OF_ASC_NODE":22.5125,"ARG_OF_PERICENTER":95.9117,"MEAN_ANOMALY":264.2214,"EPHEMERIS_TYPE":0,"CLASSIFICATION_TYPE":"U","NORAD_CAT_ID":48051,"ELEMENT_SET_NO":999,"REV_AT_EPOCH":21241,"BSTAR":-0.00074738441,"MEAN_MOTION_DOT":-2.6e-6,"MEAN_MOTION_DDOT":0}]
